H1 CPF 01  gfz 2021 04 24 12  6142 tandemx   
H2 1003001  6202 36605    2021 04 24 12 59 42 2021 04 29 00 00 42   120 1 1  0 0 0
H9
10 0 59331  69102.000000  0    6459376.497  -1835010.282  -1550254.014
10 0 59331  69222.000000  0    6546262.699  -2047830.053   -657630.081
10 0 59331  69342.000000  0    6515396.376  -2225371.496    246560.920
10 0 59331  69462.000000  0    6367914.652  -2362460.835   1146411.682
10 0 59331  69582.000000  0    6107099.724  -2454674.461   2026077.092
10 0 59331  69702.000000  0    5738307.918  -2498455.681   2870062.442
10 0 59331  69822.000000  0    5268857.291  -2491212.987   3663504.974
10 0 59331  69942.000000  0    4707875.236  -2431397.371   4392441.277
10 0 59331  70062.000000  0    4066114.155  -2318557.244   5044055.073
10 0 59331  70182.000000  0    3355737.857  -2153370.902   5606904.467
10 0 59331  70302.000000  0    2590081.252  -1937654.294   6071120.592
10 0 59331  70422.000000  0    1783393.418  -1674344.461   6428575.264
10 0 59331  70542.000000  0     950567.721  -1367460.255   6673017.574
10 0 59331  70662.000000  0     106863.756  -1022040.240   6800177.456
10 0 59331  70782.000000  0    -732372.977   -644058.745   6807834.881
10 0 59331  70902.000000  0   -1551989.059   -240322.388   6695855.491
10 0 59331  71022.000000  0   -2337295.530    181652.194   6466192.818
10 0 59331  71142.000000  0   -3074330.408    613777.602   6122856.862
10 0 59331  71262.000000  0   -3750108.075   1047549.453   5671849.107
10 0 59331  71382.000000  0   -4352852.106   1474212.256   5121064.081
10 0 59331  71502.000000  0   -4872206.817   1884934.997   4480156.998
10 0 59331  71622.000000  0   -5299422.796   2270993.519   3760378.919
10 0 59331  71742.000000  0   -5627512.034   2623954.924   2974381.685
10 0 59331  71862.000000  0   -5851369.760   2935860.323   2135996.356
10 0 59331  71982.000000  0   -5967860.893   3199401.975   1259987.790
10 0 59331  72102.000000  0   -5975867.355   3408090.499    361788.184
10 0 59331  72222.000000  0   -5876293.071   3556406.371   -542782.875
10 0 59331  72342.000000  0   -5672028.901   3639932.512  -1437805.545
10 0 59331  72462.000000  0   -5367878.174   3655465.427  -2307549.344
10 0 59331  72582.000000  0   -4970441.824   3601100.240  -3136757.982
10 0 59331  72702.000000  0   -4487969.275   3476288.760  -3910921.458
10 0 59331  72822.000000  0   -3930178.717   3281869.043  -4616530.088
10 0 59331  72942.000000  0   -3308053.357   3020067.111  -5241306.389
10 0 59331  73062.000000  0   -2633618.530   2694471.027  -5774410.307
10 0 59331  73182.000000  0   -1919705.823   2309979.503  -6206618.084
10 0 59331  73302.000000  0   -1179705.948   1872724.480  -6530470.969
10 0 59331  73422.000000  0    -427318.852   1389970.954  -6740391.469
10 0 59331  73542.000000  0     323695.789    869995.882  -6832769.307
10 0 59331  73662.000000  0    1059763.391    321948.570  -6806017.047
10 0 59331  73782.000000  0    1767735.063   -244307.080  -6660595.686
10 0 59331  73902.000000  0    2435116.889   -818365.929  -6399006.138
10 0 59331  74022.000000  0    3050285.990  -1389467.632  -6025751.448
10 0 59331  74142.000000  0    3602690.862  -1946692.937  -5547267.047
10 0 59331  74262.000000  0    4083033.890  -2479168.595  -4971821.895
10 0 59331  74382.000000  0    4483432.531  -2976278.773  -4309386.275
10 0 59331  74502.000000  0    4797553.938  -3427876.581  -3571469.189
10 0 59331  74622.000000  0    5020722.771  -3824491.983  -2770927.770
10 0 59331  74742.000000  0    5149999.181  -4157532.664  -1921748.891
10 0 59331  74862.000000  0    5184223.052  -4419471.703  -1038806.526
10 0 59331  74982.000000  0    5124023.657  -4604018.394   -137599.245
10 0 59331  75102.000000  0    4971792.575  -4706267.257    766027.394
10 0 59331  75222.000000  0    4731620.570  -4722819.662   1656167.845
10 0 59331  75342.000000  0    4409199.479  -4651875.028   2517145.612
10 0 59331  75462.000000  0    4011692.642  -4493289.715   3333797.395
10 0 59331  75582.000000  0    3547576.757  -4248602.448   4091747.172
10 0 59331  75702.000000  0    3026458.413  -3921025.182   4777664.105
10 0 59331  75822.000000  0    2458871.401  -3515399.315   5379498.372
10 0 59331  75942.000000  0    1856060.061  -3038120.399   5886691.728
10 0 59331  76062.000000  0    1229752.216  -2497031.414   6290359.181
10 0 59331  76182.000000  0     591928.367  -1901289.016   6583438.390
10 0 59331  76302.000000  0     -45409.015  -1261205.261   6760806.987
10 0 59331  76422.000000  0    -670460.935   -588066.899   6819366.953
10 0 59331  76542.000000  0   -1271849.264    106064.745   6758095.051
10 0 59331  76662.000000  0   -1838823.190    808569.550   6578059.572
10 0 59331  76782.000000  0   -2361450.976   1506497.354   6282402.845
10 0 59331  76902.000000  0   -2830794.564   2186805.808   5876289.828
10 0 59331  77022.000000  0   -3239064.139   2836604.280   5366823.855
10 0 59331  77142.000000  0   -3579751.039   3443400.106   4762928.731
10 0 59331  77262.000000  0   -3847735.948   3995341.927   4075198.049
10 0 59331  77382.000000  0   -4039369.648   4481456.335   3315713.592
10 0 59331  77502.000000  0   -4152524.622   4891872.245   2497834.460
10 0 59331  77622.000000  0   -4186615.241   5218026.539   1635959.682
10 0 59331  77742.000000  0   -4142586.476   5452846.129    745270.637
10 0 59331  77862.000000  0   -4022872.317   5590902.651   -158542.346
10 0 59331  77982.000000  0   -3831323.434   5628536.024  -1059565.674
10 0 59331  78102.000000  0   -3573104.690   5563940.927  -1941953.453
10 0 59331  78222.000000  0   -3254565.880   5397214.520  -2790214.676
10 0 59331  78342.000000  0   -2883089.725   5130366.596  -3589490.534
10 0 59331  78462.000000  0   -2466922.789   4767290.009  -4325816.762
10 0 59331  78582.000000  0   -2014992.546   4313694.702  -4986365.083
10 0 59331  78702.000000  0   -1536716.288   3777008.759  -5559659.389
10 0 59331  78822.000000  0   -1041806.236   3166249.098  -6035767.130
10 0 59331  78942.000000  0    -540073.684   2491862.421  -6406461.787
10 0 59331  79062.000000  0     -41236.931   1765541.705  -6665352.850
10 0 59331  79182.000000  0     445262.343   1000022.898  -6807985.165
10 0 59331  79302.000000  0     910433.169    208864.094  -6831907.980
10 0 59331  79422.000000  0    1345897.797   -593790.315  -6736712.443
10 0 59331  79542.000000  0    1744038.380  -1393456.919  -6524036.232
10 0 59331  79662.000000  0    2098127.006  -2175567.304  -6197538.328
10 0 59331  79782.000000  0    2402438.354  -2925726.884  -5762843.539
10 0 59331  79902.000000  0    2652342.912  -3629977.114  -5227457.378
10 0 59331  80022.000000  0    2844379.549  -4275056.758  -4600646.517
10 0 59331  80142.000000  0    2976304.039  -4848652.765  -3893287.798
10 0 59331  80262.000000  0    3047114.281  -5339639.953  -3117690.794
10 0 59331  80382.000000  0    3057051.270  -5738306.104  -2287391.409
10 0 59331  80502.000000  0    3007574.922  -6036553.258  -1416918.880
10 0 59331  80622.000000  0    2901315.040  -6228071.618   -521541.097
10 0 59331  80742.000000  0    2741996.722  -6308480.282    383008.437
10 0 59331  80862.000000  0    2534342.645  -6275429.277   1280813.684
10 0 59331  80982.000000  0    2283955.235  -6128663.197   2156064.921
10 0 59331  81102.000000  0    1997180.188  -5870040.385   2993347.411
10 0 59331  81222.000000  0    1680956.006  -5503508.767   3777919.903
10 0 59331  81342.000000  0    1342652.997  -5035041.123   4495978.930
10 0 59331  81462.000000  0     989907.006  -4472530.833   5134904.006
10 0 59331  81582.000000  0     630450.717  -3825651.033   5683480.731
10 0 59331  81702.000000  0     271946.315  -3105677.645   6132095.114
10 0 59331  81822.000000  0     -78175.308  -2325284.249   6472895.455
10 0 59331  81942.000000  0    -412866.048  -1498314.251   6699922.868
10 0 59331  82062.000000  0    -725600.291   -639533.226   6809210.309
10 0 59331  82182.000000  0   -1010500.749    235636.278   6798848.644
10 0 59331  82302.000000  0   -1262448.307   1111392.099   6669017.842
10 0 59331  82422.000000  0   -1477173.605   1971837.220   6421983.702
10 0 59331  82542.000000  0   -1651329.626   2801267.785   6062060.980
10 0 59331  82662.000000  0   -1782544.262   3584460.473   5595542.337
10 0 59331  82782.000000  0   -1869451.356   4306954.119   5030594.225
10 0 59331  82902.000000  0   -1911700.731   4955322.314   4377120.746
10 0 59331  83022.000000  0   -1909946.121   5517430.609   3646594.508
10 0 59331  83142.000000  0   -1865811.344   5982672.576   2851857.706
10 0 59331  83262.000000  0   -1781835.901   6342178.742   2006895.954
10 0 59331  83382.000000  0   -1661399.902   6588994.639   1126588.972
10 0 59331  83502.000000  0   -1508629.741   6718221.932    226442.700
10 0 59331  83622.000000  0   -1328288.127   6727119.611   -677691.054
10 0 59331  83742.000000  0   -1125650.557   6615163.399  -1569903.797
10 0 59331  83862.000000  0    -906370.524   6384056.464  -2434521.544
10 0 59331  83982.000000  0    -676339.290   6037693.756  -3256386.063
10 0 59331  84102.000000  0    -441543.153   5582085.508  -4021122.342
10 0 59331  84222.000000  0    -207921.403   5025241.459  -4715389.700
10 0 59331  84342.000000  0      18771.553   4377017.770  -5327110.502
10 0 59331  84462.000000  0     233097.197   3648931.876  -5845673.404
10 0 59331  84582.000000  0     430053.749   2853948.367  -6262108.082
10 0 59331  84702.000000  0     605183.865   2006241.957  -6569228.638
10 0 59331  84822.000000  0     754668.287   1120943.717  -6761746.118
10 0 59331  84942.000000  0     875403.589    213873.134  -6836350.423
10 0 59331  85062.000000  0     965062.900   -698739.865  -6791761.034
10 0 59331  85182.000000  0    1022138.690  -1600539.102  -6628745.205
10 0 59331  85302.000000  0    1045967.427  -2475326.602  -6350105.087
10 0 59331  85422.000000  0    1036736.553  -3307346.129  -5960636.795
10 0 59331  85542.000000  0     995472.051  -4081564.998  -5467057.809
99
